HORYU-4                 
1 41340U 16012D   19258.79803673  .00000387  00000-0  22611-4 0  9994
2 41340  31.0049 287.0070 0013984 293.2139  66.7024 15.01308405196412
E-ST@R-II               
1 41459U 16025D   19258.79907096  .00001697  00000-0  89883-4 0  9992
2 41459  98.1016 349.7839 0167793  59.1868 302.5728 15.05643699185956
AAUSAT 4                
1 41460U 16025E   19258.79470603  .00001924  00000-0  99106-4 0  9995
2 41460  98.0955 351.2475 0157710  51.0483 310.4667 15.07602048186096
DIWATA-1                
1 41463U 98067HT  19258.81210227  .00023801  00000-0  10097-3 0  9990
2 41463  51.6287 142.9151 0002374 135.7673 311.5042 15.85201924193893
BEESAT-4                
1 41619U 16040W   19258.85813796  .00000910  00000-0  41252-4 0  9992
2 41619  97.3596 319.3894 0012921  73.2491 287.0163 15.23291281167432
CANX-7                  
1 41788U 16059F   19258.82971052  .00003325  00000-0  50206-3 0  9997
2 41788  98.2430 335.7121 0029562  97.3181 263.1375 14.74712956159144
RAVAN                   
1 41849U 16067B   19258.81774585  .00000421  00000-0  40519-4 0  9996
2 41849  97.9227 359.2838 0009558  88.4545 271.7771 14.98287564155347
CELTEE 1                
1 41850U 16067C   19258.77075168  .00000456  00000-0  44817-4 0  9997
2 41850  97.9202 357.7163 0010567  87.5893 272.6537 14.97047629155259
OPTICUBE 04             
1 41851U 16067D   19258.85804886 -.00000464  00000-0 -35178-4 0  9995
2 41851  97.9188 357.5585 0010157  88.1475 272.0910 14.96828585155253
AEROCUBE 8D             
1 41852U 16067E   19258.86585491 -.00000098  00000-0 -32449-5 0  9997
2 41852  97.9195 357.3920 0010841  89.1910 271.0553 14.96749693155230
AEROCUBE 8C             
1 41853U 16067F   19258.82406681  .00000712  00000-0  67572-4 0  9992
2 41853  97.9198 357.2783 0011645  91.2551 269.0005 14.96716021155225
PROMETHEUS 2-1          
1 41854U 16067G   19258.84486150  .00000081  00000-0  12378-4 0  9997
2 41854  97.9211 357.4750 0011893  89.1283 271.1301 14.96956255155230
PROMETHEUS 2-3          
1 41855U 16067H   19258.84687913 -.00000035  00000-0  22469-5 0  9991
2 41855  97.9213 357.4964 0012037  89.4043 270.8557 14.96962003155235
INS-1B                  
1 41954U 17008G   19258.79082329  .00000881  00000-0  39175-4 0  9990
2 41954  97.3922 322.6347 0009071 181.7240 178.3967 15.24101842143371
BGUSAT                  
1 41999U 17008BD  19258.90824002  .00001435  00000-0  57987-4 0  9991
2 41999  97.4003 325.5052 0007802 192.6129 167.4915 15.26366500142909
DIDO-2                  
1 42000U 17008BE  19258.91530003  .00000561  00000-0  26071-4 0  9990
2 42000  97.3934 323.3089 0007875 199.8622 160.2310 15.24007976142792
PEASSS                  
1 42015U 17008BV  19258.75640324  .00000769  00000-0  33694-4 0  9995
2 42015  97.3946 324.2496 0005630 202.0302 158.0694 15.24998998143325
AL-FARABI 1             
1 42016U 17008BW  19258.71732089  .00000977  00000-0  41211-4 0  9997
2 42016  97.3963 324.8570 0005516 200.6818 159.4197 15.25670640143474
NAYIF-1 (EO-88)         
1 42017U 17008BX  19258.89961372  .00000949  00000-0  40071-4 0  9998
2 42017  97.3958 325.0481 0005530 200.1415 159.9606 15.25705561143524
ALTAIR PATHFINDER       
1 42711U 98067LS  19258.24998553  .00066207  00000-0  24108-3 0  9994
2 42711  51.6317 188.3913 0003832 122.1689 237.9688 15.87823259133121
NSIGHT                  
1 42726U 98067MF  19258.41010757  .00025230  00000-0  17276-3 0  9999
2 42726  51.6355 213.9244 0004979 137.3457 222.7930 15.74579527131789
UCLSAT                  
1 42765U 17036A   19258.83765217  .00000758  00000-0  35270-4 0  9996
2 42765  97.3427 314.9077 0009741 277.4993  82.5137 15.22881682124625
LITUANICASAT-2          
1 42768U 17036D   19258.74526539  .00001241  00000-0  55591-4 0  9997
2 42768  97.3467 314.4743 0013310 266.2641  93.7074 15.23029070123865
AALTO-1                 
1 42775U 17036L   19258.71773485  .00000485  00000-0  24623-4 0  9997
2 42775  97.3410 313.3304 0012270 267.7729  92.2102 15.21431350123748
URSA MAIOR              
1 42776U 17036M   19258.73630867  .00000536  00000-0  26769-4 0  9996
2 42776  97.3420 313.5256 0012088 267.4760  92.5092 15.21572561123759
COMPASS 2               
1 42777U 17036N   19258.75908519  .00001001  00000-0  45372-4 0  9990
2 42777  97.3462 314.9542 0010781 267.5644  92.4359 15.23079527123828
DIAMOND RED             
1 42783U 17036U   19258.91523238  .00000618  00000-0  29792-4 0  9997
2 42783  97.3427 314.5117 0010436 278.5117  81.4937 15.22316648123821
PEGASUS                 
1 42784U 17036V   19258.67967471  .00000714  00000-0  33638-4 0  9993
2 42784  97.3432 314.5451 0010338 278.8758  81.1308 15.22624839123805
DIAMOND GREEN           
1 42785U 17036W   19258.84831537  .00000582  00000-0  28242-4 0  9994
2 42785  97.3429 314.4731 0010330 279.4599  80.5470 15.22315204123888
DIAMOND BLUE            
1 42786U 17036X   19258.38737393  .00000659  00000-0  31554-4 0  9994
2 42786  97.3432 314.0203 0010178 281.7369  78.2726 15.22315419123734
NUDTSAT                 
1 42787U 17036Y   19258.88253091  .00001489  00000-0  64987-4 0  9996
2 42787  97.3456 315.5710 0010294 280.6523  79.3545 15.23654984123723
SUCHAI                  
1 42788U 17036Z   19258.72766704  .00000843  00000-0  38693-4 0  9998
2 42788  97.3437 314.9524 0009872 277.4111  82.6004 15.23063490123909
SKCUBE                  
1 42789U 17036AA  19258.74951845  .00000790  00000-0  36573-4 0  9999
2 42789  97.3432 314.8987 0009745 277.5602  82.4527 15.22953636123820
VZLUSAT-1               
1 42790U 17036AB  19258.73823861  .00001064  00000-0  47290-4 0  9999
2 42790  97.3450 315.4322 0009294 276.0722  83.9456 15.23644450123850
ROBUSTA-1B              
1 42792U 17036AD  19258.73619264  .00000833  00000-0  38197-4 0  9990
2 42792  97.3434 315.0562 0009322 278.4845  81.5336 15.23127927123845
CICERO 6                
1 42793U 17036AE  19258.75478816  .00000556  00000-0  26813-4 0  9993
2 42793  97.3415 314.7853 0008600 280.7770  79.2499 15.22680495123909
D-SAT                   
1 42794U 17036AF  19258.58832790  .00000255  00000-0  27633-4 0  9997
2 42794  97.5318 299.3437 0125888 204.6823 154.8340 14.91131600121583
CORVUS BC2              
1 42846U 17042X   19258.67630739 -.00000051  00000-0  26260-6 0  9993
2 42846  97.5534 149.0775 0010996 114.2240 246.0130 14.91998425118289
CORVUS BC1              
1 42847U 17042Y   19258.89181213  .00000020  00000-0  72411-5 0  9999
2 42847  97.5536 149.4052 0010683 112.9158 247.3190 14.92098908118312
MIRATA                  
1 43015U 17073C   19258.78299977  .00000432  00000-0  39648-4 0  9997
2 43015  97.7163 176.5271 0253783 227.2605 130.7001 14.79108482 98462
MAKERSAT 0              
1 43016U 17073D   19258.74514710  .00000284  00000-0  28025-4 0  9991
2 43016  97.7198 176.6934 0256102 227.8659 130.0537 14.78828056 98452
ASTERIA                 
1 43020U 98067NH  19258.34802824  .00023248  00000-0  16500-3 0  9999
2 43020  51.6429 225.7909 0003066  95.8584 264.2764 15.73805828103806
DELLINGR (RBLE)         
1 43021U 98067NJ  19258.54618532  .00007822  00000-0  85897-4 0  9999
2 43021  51.6366 242.7548 0003046  79.7808 280.3530 15.64275120103595
AEROCUBE 7B (OCSD B)    
1 43042U 17071F   19258.71646119  .00002114  00000-0  59029-4 0  9996
2 43042  51.6394 337.5525 0004946 115.3539 244.7959 15.41613646 99817
AEROCUBE 7C (OCSD C)    
1 43043U 17071G   19258.84610681  .00002121  00000-0  59199-4 0  9992
2 43043  51.6395 336.9327 0005176 119.7468 240.4033 15.41618031 99805
CHEFSAT                 
1 43044U 17071H   19258.80658397  .00003729  00000-0  87954-4 0  9990
2 43044  51.6397 330.0663 0004871 118.4547 241.6931 15.44542878 99898
ASGARDIA 1              
1 43049U 17071N   19258.72626159  .00001962  00000-0  55246-4 0  9993
2 43049  51.6404 336.9210 0002652 131.1174 229.0040 15.41734043 99792
ISARA                   
1 43050U 17071P   19258.78624021  .00003128  00000-0  76483-4 0  9999
2 43050  51.6385 331.3765 0002385 125.7606 234.3602 15.44029245 99874
PROPCUBE 2 (FAUNA)      
1 43052U 17071R   19258.52080418  .00002167  00000-0  59439-4 0  9993
2 43052  51.6402 337.0679 0002608 126.4675 233.6551 15.42038848 99765
CORVUS BC3              
1 43118U 18004H   19258.76984443  .00000495  00000-0  24130-4 0  9992
2 43118  97.4793 325.8020 0008988 305.0123  55.0269 15.22940289 93039
MICROMAS-2A             
1 43131U 18004W   19258.89568341  .00001115  00000-0  48526-4 0  9991
2 43131  97.4822 326.8260 0007941 306.1956  53.8547 15.24327745 93109
SPACEBEE-4              
1 43139U 18004AE  19258.86585317  .00001671  00000-0  69368-4 0  9992
2 43139  97.4842 327.4155 0007341 309.2707  50.7878 15.25242701 93136
SPACEBEE-3              
1 43140U 18004AF  19258.87787491  .00002029  00000-0  82177-4 0  9993
2 43140  97.4855 327.7564 0007085 308.2401  51.8199 15.25828563 93150
SPACEBEE-2              
1 43141U 18004AG  19258.90294914  .00002165  00000-0  86994-4 0  9993
2 43141  97.4859 327.8926 0006980 307.6337  52.4267 15.26027776 93164
SPACEBEE-1              
1 43142U 18004AH  19258.72606074  .00002376  00000-0  94541-4 0  9999
2 43142  97.4864 327.8446 0006964 308.3912  51.6700 15.26251624 93138
CICERO 7                
1 43143U 18004AJ  19258.78055137  .00001039  00000-0  45272-4 0  9996
2 43143  97.4807 326.9252 0006316 319.7711  40.3059 15.24442751 93105
GOMX-4B                 
1 43196U 18015E   19258.93613122  .00000216  00000-0  11862-4 0  9991
2 43196  97.4017  25.2802 0019002 358.7518   1.3666 15.24004488 89938
GOMX-4A                 
1 43197U 18015F   19258.93368844  .00000370  00000-0  18105-4 0  9998
2 43197  97.4032  25.3106 0019335 359.2847 118.4486 15.24107246 89941
1KUNS-PF                
1 43466U 98067NP  19258.40430961  .00020664  00000-0  17932-3 0  9998
2 43466  51.6350 243.2551 0002065  78.9682 281.1547 15.69077228 76839
